ONEWEB-0555             
1 56057U 23043M   25197.83267158 -.00000049  00000+0 -16196-3 0  9999
2 56057  87.9057 295.6125 0001450 105.6009 254.5282 13.16595112114831
ONEWEB-0557             
1 56058U 23043N   25197.77091539 -.00000239  00000+0 -65753-3 0  9995
2 56058  87.9050 295.6464 0001875 140.5498 219.5770 13.16594327114821
ONEWEB-0558             
1 56059U 23043P   25197.88047270  .00000059  00000+0  11201-3 0  9998
2 56059  87.9278 310.8750 0002252  89.8293 270.3099 13.21824008113949
ONEWEB-0559             
1 56060U 23043Q   25197.86944330  .00000066  00000+0  12755-3 0  9994
2 56060  87.9278 310.8692 0002370  99.4781 260.6620 13.21825637113958
ONEWEB-0566             
1 56061U 23043R   25197.86313748 -.00000013  00000+0 -63554-4 0  9996
2 56061  87.9272 310.8689 0002261  95.4024 264.7368 13.21825691113936
ONEWEB-0568             
1 56062U 23043S   25197.78834910  .00000036  00000+0  59595-4 0  9990
2 56062  87.9062 295.6159 0001700 100.9745 259.1577 13.16594657114845
ONEWEB-0574             
1 56063U 23043T   25198.23530935  .00000033  00000+0  47196-4 0  9993
2 56063  87.9275 310.7828 0001963 106.3944 253.7406 13.21825414114931
ONEWEB-0575             
1 56064U 23043U   25197.78201781  .00000025  00000+0  32770-4 0  9990
2 56064  87.9055 295.6253 0001858 114.0555 246.0771 13.16594399114836
ONEWEB-0576             
1 56065U 23043V   25197.76300439 -.00000104  00000+0 -30502-3 0  9999
2 56065  87.9058 295.6199 0001787 102.8606 257.2724 13.16595278114820
ONEWEB-0577             
1 56066U 23043W   25198.22532421 -.00000012  00000+0 -64604-4 0  9999
2 56066  87.9064 295.5274 0001927 120.7213 239.4108 13.16593745115826
ONEWEB-0578             
1 56067U 23043X   25198.22268741  .00000095  00000+0  19895-3 0  9991
2 56067  87.9273 310.7964 0001855 100.7475 259.3868 13.21827540114892
ONEWEB-0579             
1 56068U 23043Y   25198.21323371  .00003831  00000+0  92428-2 0  9995
2 56068  87.9272 310.7836 0002368 104.2426 255.8971 13.21806418114904
ONEWEB-0581             
1 56069U 23043Z   25198.23166560  .00000031  00000+0  47431-4 0  9998
2 56069  87.9052 295.5541 0002199 112.7282 247.4081 13.16594308115793
ONEWEB-0609             
1 56070U 23043AA  25197.92306185 -.00000112  00000+0 -33280-3 0  9992
2 56070  87.9075 326.0649 0001912  95.9260 264.2089 13.15548632113262
ONEWEB-0613             
1 56071U 23043AB  25197.91830953 -.00000129  00000+0 -37644-3 0  9993
2 56071  87.9082 326.0778 0002132  98.3272 261.8100 13.15548495113263
ONEWEB-0630             
1 56072U 23043AC  25197.91354619 -.00000145  00000+0 -41804-3 0  9995
2 56072  87.9078 326.0554 0002196  94.8265 265.3116 13.15548943112346
ONEWEB-0632             
1 56073U 23043AD  25197.90879491 -.00000073  00000+0 -22734-3 0  9996
2 56073  87.9079 326.0762 0002031 104.2954 255.8402 13.15549001113257
ONEWEB-0633             
1 56074U 23043AE  25197.90244169 -.00000008  00000+0 -54837-4 0  9993
2 56074  87.9074 326.0443 0002223  90.0088 270.1297 13.15549598113233
ONEWEB-0634             
1 56075U 23043AF  25197.81213963  .00000130  00000+0  31042-3 0  9998
2 56075  87.9081 326.0994 0001787  88.8767 271.2568 13.15548617112307
ONEWEB-0635             
1 56076U 23043AG  25197.80737880  .00000119  00000+0  28231-3 0  9990
2 56076  87.9050 326.0778 0001972 108.5418 251.5927 13.15549456112338
ONEWEB-0636             
1 56077U 23043AH  25197.87551871  .00000073  00000+0  15974-3 0  9991
2 56077  87.9060 326.0759 0001966 106.5560 253.5786 13.15548566112323
ONEWEB-0637             
1 56078U 23043AJ  25197.86917584  .00000024  00000+0  30579-4 0  9993
2 56078  87.9075 326.0859 0001612 106.4789 253.6518 13.15546383112342
ONEWEB-0647             
1 56079U 23043AK  25197.86443405  .00000007  00000+0 -15232-4 0  9991
2 56079  87.9077 326.0960 0002088 102.0411 258.0953 13.15548558112337
ONEWEB-0651             
1 56080U 23043AL  25197.85967772 -.00000060  00000+0 -19431-3 0  9994
2 56080  87.9080 326.0858 0001809 108.1921 251.9406 13.15548568113531
ONEWEB-0718             
1 56081U 23043AM  25197.85492341 -.00000108  00000+0 -32037-3 0  9990
2 56081  87.9080 326.0699 0001658  85.9958 274.1361 13.15549267112341
ONEWEB-0561             
1 56710U 23068A   25197.89821376  .00000096  00000+0  20346-3 0  9998
2 56710  87.9270 341.2511 0002187 110.1966 249.9403 13.20770505105246
ONEWEB-0668             
1 56711U 23068B   25197.77804673  .00000018  00000+0  13051-4 0  9997
2 56711  87.9066 295.6089 0001515  89.8527 270.2778 13.16594808107644
ONEWEB-0676             
1 56712U 23068C   25197.83426595 -.00000055  00000+0 -17662-3 0  9992
2 56712  87.9056 295.6223 0002258 111.0981 249.0392 13.16595077107578
ONEWEB-0677             
1 56713U 23068D   25197.96293452  .00000093  00000+0  19761-3 0  9993
2 56713  87.9269 341.2155 0001730 105.4290 254.7035 13.20770601106255
ONEWEB-0678             
1 56714U 23068E   25197.89929400  .00000057  00000+0  11736-3 0  9999
2 56714  87.9081 326.0325 0002249  97.7535 262.3851 13.15548682105200
ONEWEB-0679             
1 56715U 23068F   25198.18336901  .00000153  00000+0  36640-3 0  9999
2 56715  87.9056 295.5453 0001597 111.2301 248.9001 13.16594414108343
ONEWEB-0680             
1 56716U 23068G   25197.83789015  .00000021  00000+0  18227-4 0  9995
2 56716  87.9262 310.8617 0001341  92.9917 267.1370 13.21824933106798
ONEWEB-0681             
1 56717U 23068H   25197.84406999 -.00000030  00000+0 -10336-3 0  9998
2 56717  87.9270 310.8875 0002191 126.6011 233.5325 13.22338970106786
ONEWEB-0682             
1 56718U 23068J   25197.84935834 -.00000378  00000+0 -10393-2 0  9991
2 56718  87.9076 326.0723 0001357  97.8719 262.2566 13.15548770105361
ONEWEB-0683             
1 56719U 23068K   25197.87076537  .00000072  00000+0  15767-3 0  9991
2 56719  87.9077 326.0386 0001607  95.6742 264.4571 13.15549100106031
ONEWEB-0684             
1 56720U 23068L   25197.87868938  .00000143  00000+0  34594-3 0  9995
2 56720  87.9051 326.0485 0003136  81.7225 278.4261 13.15548808105164
ONEWEB-0686             
1 56721U 23068M   25197.79309614  .00000118  00000+0  27444-3 0  9996
2 56721  87.9051 295.6568 0001863  91.5896 268.5448 13.16594418107580
ONEWEB-0694             
1 56722U 23068N   25198.21581899  .00000031  00000+0  46387-4 0  9994
2 56722  87.9065 295.4932 0001572  97.5900 262.5410 13.16595578108399
ONEWEB-0696             
1 56723U 23068P   25197.91196221 -.00000088  00000+0 -26848-3 0  9995
2 56723  87.9079 326.0833 0002225  97.8390 262.2993 13.15548920105981
ONEWEB-0703             
1 56724U 23068Q   25197.92145892 -.00000352  00000+0 -96936-3 0  9994
2 56724  87.9059 326.0738 0002970 108.4984 251.6469 13.15548058105879
ONEWEB-0721             
1 56725U 23068R   25197.96621565 -.00000025  00000+0 -94297-4 0  9991
2 56725  86.6812 192.3451 0002000  87.6628 272.4734 13.22440162113630
ONEWEB-0015             
1 61594U 24188A   25197.75625696  .00000511  00000+0  14048-2 0  9993
2 61594  87.8848  87.9570 0001420  95.9403 264.1887 13.11418916 40491
ONEWEB-0687             
1 61595U 24188B   25198.20047046 -.00004840  00000+0 -12501-1 0  9994
2 61595  87.9056  72.5960 0001278  71.3457 288.7813 13.17678431 40076
ONEWEB-0688             
1 61596U 24188C   25198.07722155  .00000019  00000+0  15129-4 0  9995
2 61596  87.9045  72.6222 0001094 132.2006 227.9218 13.17651152 39837
ONEWEB-0689             
1 61597U 24188D   25197.71386346 -.00000388  00000+0 -11320-2 0  9992
2 61597  87.8788  87.9441 0001628  68.4050 291.7251 13.11415046 40488
ONEWEB-0690             
1 61598U 24188E   25198.18182645 -.00000477  00000+0 -13811-2 0  9997
2 61598  87.8838  87.8060 0002515  86.6865 273.4550 13.11417526 38833
ONEWEB-0691             
1 61599U 24188F   25197.71895836 -.00000483  00000+0 -13992-2 0  9996
2 61599  87.8745  87.9024 0001601  89.2466 270.8846 13.11416246 40518
ONEWEB-0692             
1 61600U 24188G   25197.73931234 -.00000138  00000+0 -42550-3 0  9994
2 61600  87.8823  87.9688 0002321  55.1205 305.0141 13.11418026 40503
ONEWEB-0693             
1 61601U 24188H   25197.63347298  .00000033  00000+0  52836-4 0  9996
2 61601  87.9053  72.7274 0002414  97.8938 262.2467 13.17647137 41691
ONEWEB-0695             
1 61602U 24188J   25197.71556624 -.00000437  00000+0 -12698-2 0  9991
2 61602  87.8824  87.9593 0001784  58.6864 301.4438 13.11416360 40498
ONEWEB-0697             
1 61603U 24188K   25198.20555887  .00000085  00000+0  20419-3 0  9995
2 61603  87.8811  87.8570 0002224  56.1272 304.0067 13.11420496 38821
ONEWEB-0698             
1 61604U 24188L   25197.72573652 -.00000570  00000+0 -16434-2 0  9994
2 61604  87.8817  87.9646 0002905  70.3621 289.7820 13.11417629 40503
ONEWEB-0699             
1 61605U 24188M   25198.15881853 -.00000346  00000+0 -10262-2 0  9992
2 61605  87.8818 103.0719 0002329  64.1692 295.9676 13.10376012 37564
ONEWEB-0700             
1 61606U 24188N   25197.77867450 -.00000262  00000+0 -78812-3 0  9990
2 61606  87.8779 103.0511 0001826  54.6669 305.4629 13.10375328 39375
ONEWEB-0701             
1 61607U 24188P   25197.79529178  .00000511  00000+0  14261-2 0  9997
2 61607  87.8817 103.1519 0002458  58.8860 301.2508 13.10375140 39382
ONEWEB-0702             
1 61608U 24188Q   25198.15301103  .00000488  00000+0  13405-2 0  9997
2 61608  87.8747  87.8439 0002129  51.8680 308.2640 13.11414871 38651
ONEWEB-0704             
1 61609U 24188R   25198.16544754 -.00000011  00000+0 -68640-4 0  9997
2 61609  87.8846 103.0152 0002186  48.8194 311.3122 13.10375630 37561
ONEWEB-0705             
1 61610U 24188S   25197.78864030  .00000319  00000+0  87853-3 0  9993
2 61610  87.8809 103.1371 0001161  36.9039 323.2168 13.10376400 31533
ONEWEB-0706             
1 61611U 24188T   25197.77316305 -.00000558  00000+0 -16396-2 0  9990
2 61611  87.8824 103.1658 0001792  63.8126 296.3185 13.10220917 39454
